[{"OBJECT_NAME":"STARLINK-36260","OBJECT_ID":"2026-026M","EPOCH":"2026-03-09T22:00:01.999584","MEAN_MOTION":15.48166474,"ECCENTRICITY":0.00019852,"INCLINATION":97.2852,"RA_OF_ASC_NODE":123.4975,"ARG_OF_PERICENTER":71.8406,"MEAN_ANOMALY":121.4123,"EPHEMERIS_TYPE":0,"CLASSIFICATION_TYPE":"U","NORAD_CAT_ID":67732,"ELEMENT_SET_NO":999,"REV_AT_EPOCH":535,"BSTAR":-0.040776079,"MEAN_MOTION_DOT":-0.01921424,"MEAN_MOTION_DDOT":0},{"OBJECT_NAME":"H-2A R\/B","OBJECT_ID":"2018-084L","EPOCH":"2026-03-09T14:28:20.133120","MEAN_MOTION":15.41344491,"ECCENTRICITY":0.0025468,"INCLINATION":98.8729,"RA_OF_ASC_NODE":285.9721,"ARG_OF_PERICENTER":25.6211,"MEAN_ANOMALY":334.6287,"EPHEMERIS_TYPE":0,"CLASSIFICATION_TYPE":"U","NORAD_CAT_ID":43682,"ELEMENT_SET_NO":999,"REV_AT_EPOCH":40576,"BSTAR":0.00049941,"MEAN_MOTION_DOT":0.0002099,"MEAN_MOTION_DDOT":0}]
